[{"OBJECT_NAME":"ONEWEB-0393","OBJECT_ID":"2021-132E","EPOCH":"2026-03-09T21:08:46.449888","MEAN_MOTION":13.17649696,"ECCENTRICITY":0.00018232,"INCLINATION":87.9161,"RA_OF_ASC_NODE":25.5814,"ARG_OF_PERICENTER":73.9897,"MEAN_ANOMALY":286.1436,"EPHEMERIS_TYPE":0,"CLASSIFICATION_TYPE":"U","NORAD_CAT_ID":50473,"ELEMENT_SET_NO":999,"REV_AT_EPOCH":20503,"BSTAR":-0.00030494445,"MEAN_MOTION_DOT":-1.06e-6,"MEAN_MOTION_DDOT":0},{"OBJECT_NAME":"SL-8 R\/B","OBJECT_ID":"1978-122B","EPOCH":"2026-03-09T22:08:45.907584","MEAN_MOTION":13.22164707,"ECCENTRICITY":0.00243144,"INCLINATION":82.9677,"RA_OF_ASC_NODE":244.6432,"ARG_OF_PERICENTER":279.4293,"MEAN_ANOMALY":190.5586,"EPHEMERIS_TYPE":0,"CLASSIFICATION_TYPE":"U","NORAD_CAT_ID":11170,"ELEMENT_SET_NO":999,"REV_AT_EPOCH":25975,"BSTAR":0.00013896554,"MEAN_MOTION_DOT":7.1e-7,"MEAN_MOTION_DDOT":0}]
